STARLINK-31169          
1 58809U 24012Y   26068.28900592  .00002089  00000+0  85432-4 0  9990
2 58809  43.0027 167.5933 0001603 276.3812  83.6857 15.27572273121171
FLOCK 4G-26             
1 62633U 25009AA  26068.80489479  .00011283  00000+0  42469-3 0  9999
2 62633  97.4054 151.3913 0001988 299.1273  60.9767 15.27281631 63733
