[{"OBJECT_NAME":"STARLINK-31169","OBJECT_ID":"2024-012Y","EPOCH":"2026-03-09T06:56:10.111488","MEAN_MOTION":15.27572273,"ECCENTRICITY":0.00016039,"INCLINATION":43.0027,"RA_OF_ASC_NODE":167.5933,"ARG_OF_PERICENTER":276.3812,"MEAN_ANOMALY":83.6857,"EPHEMERIS_TYPE":0,"CLASSIFICATION_TYPE":"U","NORAD_CAT_ID":58809,"ELEMENT_SET_NO":999,"REV_AT_EPOCH":12117,"BSTAR":8.5431733e-5,"MEAN_MOTION_DOT":2.089e-5,"MEAN_MOTION_DDOT":0},{"OBJECT_NAME":"FLOCK 4G-26","OBJECT_ID":"2025-009AA","EPOCH":"2026-03-09T19:19:02.910720","MEAN_MOTION":15.27281631,"ECCENTRICITY":0.0001988,"INCLINATION":97.4054,"RA_OF_ASC_NODE":151.3913,"ARG_OF_PERICENTER":299.1273,"MEAN_ANOMALY":60.9767,"EPHEMERIS_TYPE":0,"CLASSIFICATION_TYPE":"U","NORAD_CAT_ID":62633,"ELEMENT_SET_NO":999,"REV_AT_EPOCH":6373,"BSTAR":0.00042468806,"MEAN_MOTION_DOT":0.00011283,"MEAN_MOTION_DDOT":0}]
